{
    "links": {
        "self": "http://www.neowsapp.com/rest/v1/neo/3648094?api_key=iIulBulltgU6a56xZRHN4H3l9WmuAYTsLGpBGhQ2"
    },
    "id": "3648094",
    "neo_reference_id": "3648094",
    "name": "(2013 RV73)",
    "designation": "2013 RV73",
    "nasa_jpl_url": "http://ssd.jpl.nasa.gov/sbdb.cgi?sstr=3648094",
    "absolute_magnitude_h": 25.4,
    "estimated_diameter": {
        "kilometers": {
            "estimated_diameter_min": 0.022108281,
            "estimated_diameter_max": 0.0494356193
        },
        "meters": {
            "estimated_diameter_min": 22.1082810359,
            "estimated_diameter_max": 49.435619262
        },
        "miles": {
            "estimated_diameter_min": 0.0137374447,
            "estimated_diameter_max": 0.0307178602
        },
        "feet": {
            "estimated_diameter_min": 72.5337327539,
            "estimated_diameter_max": 162.1903570994
        }
    },
    "is_potentially_hazardous_asteroid": false,
    "close_approach_data": [
        {
            "close_approach_date": "2008-08-06",
            "close_approach_date_full": "2008-Aug-06 07:32",
            "epoch_date_close_approach": 1218007920000,
            "relative_velocity": {
                "kilometers_per_second": "19.5430885993",
                "kilometers_per_hour": "70355.1189574559",
                "miles_per_hour": "43715.9348877592"
            },
            "miss_distance": {
                "astronomical": "0.1393833074",
                "lunar": "54.2201065786",
                "kilometers": "20851445.900595238",
                "miles": "12956487.6823127644"
            },
            "orbiting_body": "Venus"
        },
        {
            "close_approach_date": "2012-03-01",
            "close_approach_date_full": "2012-Mar-01 00:30",
            "epoch_date_close_approach": 1330561800000,
            "relative_velocity": {
                "kilometers_per_second": "9.8077261135",
                "kilometers_per_hour": "35307.8140084693",
                "miles_per_hour": "21938.9025432069"
            },
            "miss_distance": {
                "astronomical": "0.1987545163",
                "lunar": "77.3155068407",
                "kilometers": "29733252.291360281",
                "miles": "18475386.2588066378"
            },
            "orbiting_body": "Earth"
        },
        {
            "close_approach_date": "2013-09-10",
            "close_approach_date_full": "2013-Sep-10 08:18",
            "epoch_date_close_approach": 1378801080000,
            "relative_velocity": {
                "kilometers_per_second": "14.7170357508",
                "kilometers_per_hour": "52981.3287030532",
                "miles_per_hour": "32920.5372710721"
            },
            "miss_distance": {
                "astronomical": "0.0145864744",
                "lunar": "5.6741385416",
                "kilometers": "2182105.501049528",
                "miles": "1355897.4845503664"
            },
            "orbiting_body": "Earth"
        },
        {
            "close_approach_date": "2019-09-24",
            "close_approach_date_full": "2019-Sep-24 02:56",
            "epoch_date_close_approach": 1569293760000,
            "relative_velocity": {
                "kilometers_per_second": "23.7057768985",
                "kilometers_per_hour": "85340.7968345402",
                "miles_per_hour": "53027.4523442175"
            },
            "miss_distance": {
                "astronomical": "0.2992536334",
                "lunar": "116.4096633926",
                "kilometers": "44767706.146400858",
                "miles": "27817362.6911255204"
            },
            "orbiting_body": "Earth"
        }
    ],
    "orbital_data": {
        "orbit_id": "6",
        "orbit_determination_date": "2017-04-06 08:44:41",
        "first_observation_date": "2013-09-14",
        "last_observation_date": "2013-09-26",
        "data_arc_in_days": 12,
        "observations_used": 27,
        "orbit_uncertainty": "8",
        "minimum_orbit_intersection": ".0125178",
        "jupiter_tisserand_invariant": "5.407",
        "epoch_osculation": "2456551.5",
        "eccentricity": ".4530139409021691",
        "semi_major_axis": "1.135548548137264",
        "inclination": "8.166873967997223",
        "ascending_node_longitude": "352.6982524153804",
        "orbital_period": "441.9844461694365",
        "perihelion_distance": ".6211292252598654",
        "perihelion_argument": "251.5632926783789",
        "aphelion_distance": "1.649967871014662",
        "perihelion_time": "2456483.450454729035",
        "mean_anomaly": "55.42691945353221",
        "mean_motion": ".8145083002807582",
        "equinox": "J2000",
        "orbit_class": {
            "orbit_class_type": "APO",
            "orbit_class_description": "Near-Earth asteroid orbits which cross the Earth’s orbit similar to that of 1862 Apollo",
            "orbit_class_range": "a (semi-major axis) > 1.0 AU; q (perihelion) < 1.017 AU"
        }
    },
    "is_sentry_object": false
}